{
  "type": "FeatureCollection",
  "features": [
    {
      "type": "Feature",
      "properties": {
        "norad_id": 66922,
        "name": "HULIANWANG DIGUI-112",
        "group": "last-30-days",
        "lat": -28.914620639161672,
        "lon": 81.9754103055768,
        "alt_km": 871.6217137637768,
        "timestamp": "2025-12-14T14:39:28.134623+00:00",
        "meta_object_name": "HULIANWANG DIGUI-112",
        "meta_object_id": "2025-285H",
        "meta_epoch": "2025-12-13T23:29:26.457216",
        "meta_mean_motion": 14.06000421,
        "meta_eccentricity": 0.00069499,
        "meta_inclination": 50.0085,
        "meta_ra_of_asc_node": 112.1814,
        "meta_arg_of_pericenter": 305.4431,
        "meta_mean_anomaly": 54.5825,
        "meta_ephemeris_type": 0,
        "meta_classification_type": "U",
        "meta_norad_cat_id": 66922,
        "meta_element_set_no": 999,
        "meta_rev_at_epoch": 108,
        "meta_bstar": -2.385246e-06,
        "meta_mean_motion_dot": -1.56e-06,
        "meta_mean_motion_ddot": 0,
        "tle_line1": "1 66922U 25285H   25347.97877844 -.00000156  00000+0 -23852-5 0  9990",
        "tle_line2": "2 66922  50.0085 112.1814 0006949 305.4431  54.5825 14.06000421  1087"
      },
      "geometry": {
        "type": "Point",
        "coordinates": [
          81.9754103055768,
          -28.914620639161672
        ]
      }
    },
    {
      "type": "Feature",
      "properties": {
        "norad_id": 66923,
        "name": "HULIANWANG DIGUI-113",
        "group": "last-30-days",
        "lat": -27.734136308951246,
        "lon": 83.40723988783103,
        "alt_km": 872.5580029789871,
        "timestamp": "2025-12-14T14:39:28.134633+00:00",
        "meta_object_name": "HULIANWANG DIGUI-113",
        "meta_object_id": "2025-285J",
        "meta_epoch": "2025-12-13T21:46:38.655840",
        "meta_mean_motion": 14.0605692,
        "meta_eccentricity": 0.00054169,
        "meta_inclination": 50.0084,
        "meta_ra_of_asc_node": 112.4714,
        "meta_arg_of_pericenter": 300.1513,
        "meta_mean_anomaly": 59.8855,
        "meta_ephemeris_type": 0,
        "meta_classification_type": "U",
        "meta_norad_cat_id": 66923,
        "meta_element_set_no": 999,
        "meta_rev_at_epoch": 107,
        "meta_bstar": 0.00015753893,
        "meta_mean_motion_dot": 1.08e-06,
        "meta_mean_motion_ddot": 0,
        "tle_line1": "1 66923U 25285J   25347.90739185  .00000108  00000+0  15754-3 0  9994",
        "tle_line2": "2 66923  50.0084 112.4714 0005416 300.1513  59.8855 14.06056920  1075"
      },
      "geometry": {
        "type": "Point",
        "coordinates": [
          83.40723988783103,
          -27.734136308951246
        ]
      }
    },
    {
      "type": "Feature",
      "properties": {
        "norad_id": 66924,
        "name": "CZ-8A R/B",
        "group": "last-30-days",
        "lat": -24.74738561847177,
        "lon": 85.42440319951024,
        "alt_km": 864.0886613271014,
        "timestamp": "2025-12-14T14:39:28.134644+00:00",
        "meta_object_name": "CZ-8A R/B",
        "meta_object_id": "2025-285K",
        "meta_epoch": "2025-12-13T17:01:08.437152",
        "meta_mean_motion": 14.30502365,
        "meta_eccentricity": 0.01193336,
        "meta_inclination": 50.0066,
        "meta_ra_of_asc_node": 112.028,
        "meta_arg_of_pericenter": 110.1527,
        "meta_mean_anomaly": 251.2272,
        "meta_ephemeris_type": 0,
        "meta_classification_type": "U",
        "meta_norad_cat_id": 66924,
        "meta_element_set_no": 999,
        "meta_rev_at_epoch": 106,
        "meta_bstar": 8.3497377e-05,
        "meta_mean_motion_dot": 7e-07,
        "meta_mean_motion_ddot": 0,
        "tle_line1": "1 66924U 25285K   25347.70912543  .00000070  00000+0  83497-4 0  9992",
        "tle_line2": "2 66924  50.0066 112.0280 0119333 110.1527 251.2272 14.30502365  1064"
      },
      "geometry": {
        "type": "Point",
        "coordinates": [
          85.42440319951024,
          -24.74738561847177
        ]
      }
    },
    {
      "type": "Feature",
      "properties": {
        "norad_id": 66925,
        "name": "STARLINK-35945",
        "group": "last-30-days",
        "lat": 43.55822187063175,
        "lon": 86.67523990665364,
        "alt_km": 287.7930569428536,
        "timestamp": "2025-12-14T14:39:28.134654+00:00",
        "meta_object_name": "STARLINK-35945",
        "meta_object_id": "2025-286A",
        "meta_epoch": "2025-12-13T20:00:03.000384",
        "meta_mean_motion": 15.94819632,
        "meta_eccentricity": 6.915e-05,
        "meta_inclination": 53.1575,
        "meta_ra_of_asc_node": 45.1687,
        "meta_arg_of_pericenter": 72.1744,
        "meta_mean_anomaly": 204.2185,
        "meta_ephemeris_type": 0,
        "meta_classification_type": "U",
        "meta_norad_cat_id": 66925,
        "meta_element_set_no": 999,
        "meta_rev_at_epoch": 216,
        "meta_bstar": -0.0032441039,
        "meta_mean_motion_dot": -0.01276938,
        "meta_mean_motion_ddot": 0.00049047029,
        "tle_line1": "1 66925U 25286A   25347.83336806 -.01276938  49047-3 -32441-2 0  9990",
        "tle_line2": "2 66925  53.1575  45.1687 0000691  72.1744 204.2185 15.94819632  2167"
      },
      "geometry": {
        "type": "Point",
        "coordinates": [
          86.67523990665364,
          43.55822187063175
        ]
      }
    },
    {
      "type": "Feature",
      "properties": {
        "norad_id": 66926,
        "name": "STARLINK-35942",
        "group": "last-30-days",
        "lat": 45.49696738763319,
        "lon": 90.91200264050099,
        "alt_km": 287.03278009057794,
        "timestamp": "2025-12-14T14:39:28.134664+00:00",
        "meta_object_name": "STARLINK-35942",
        "meta_object_id": "2025-286B",
        "meta_epoch": "2025-12-13T20:00:03.000384",
        "meta_mean_motion": 15.94981323,
        "meta_eccentricity": 6.809e-05,
        "meta_inclination": 53.1575,
        "meta_ra_of_asc_node": 45.162,
        "meta_arg_of_pericenter": 64.7743,
        "meta_mean_anomaly": 214.7609,
        "meta_ephemeris_type": 0,
        "meta_classification_type": "U",
        "meta_norad_cat_id": 66926,
        "meta_element_set_no": 999,
        "meta_rev_at_epoch": 216,
        "meta_bstar": -0.0032279871,
        "meta_mean_motion_dot": -0.01281617,
        "meta_mean_motion_ddot": 0.00049455084,
        "tle_line1": "1 66926U 25286B   25347.83336806 -.01281617  49455-3 -32280-2 0  9995",
        "tle_line2": "2 66926  53.1575  45.1620 0000680  64.7743 214.7609 15.94981323  2163"
      },
      "geometry": {
        "type": "Point",
        "coordinates": [
          90.91200264050099,
          45.49696738763319
        ]
      }
    },
    {
      "type": "Feature",
      "properties": {
        "norad_id": 66927,
        "name": "STARLINK-35943",
        "group": "last-30-days",
        "lat": 46.28649984198812,
        "lon": 92.83803619870304,
        "alt_km": 286.6793668686396,
        "timestamp": "2025-12-14T14:39:28.134676+00:00",
        "meta_object_name": "STARLINK-35943",
        "meta_object_id": "2025-286C",
        "meta_epoch": "2025-12-13T20:00:03.000384",
        "meta_mean_motion": 15.95058128,
        "meta_eccentricity": 8.197e-05,
        "meta_inclination": 53.1575,
        "meta_ra_of_asc_node": 45.1593,
        "meta_arg_of_pericenter": 67.3588,
        "meta_mean_anomaly": 213.5549,
        "meta_ephemeris_type": 0,
        "meta_classification_type": "U",
        "meta_norad_cat_id": 66927,
        "meta_element_set_no": 999,
        "meta_rev_at_epoch": 216,
        "meta_bstar": -0.0032617148,
        "meta_mean_motion_dot": -0.01300157,
        "meta_mean_motion_ddot": 0.0005080512,
        "tle_line1": "1 66927U 25286C   25347.83336806 -.01300157  50805-3 -32617-2 0  9992",
        "tle_line2": "2 66927  53.1575  45.1593 0000819  67.3588 213.5549 15.95058128  2162"
      },
      "geometry": {
        "type": "Point",
        "coordinates": [
          92.83803619870304,
          46.28649984198812
        ]
      }
    },
    {
      "type": "Feature",
      "properties": {
        "norad_id": 66928,
        "name": "STARLINK-35944",
        "group": "last-30-days",
        "lat": 44.64573670754998,
        "lon": 88.97409907935449,
        "alt_km": 287.30777399460567,
        "timestamp": "2025-12-14T14:39:28.134688+00:00",
        "meta_object_name": "STARLINK-35944",
        "meta_object_id": "2025-286D",
        "meta_epoch": "2025-12-13T20:00:03.000384",
        "meta_mean_motion": 15.94911317,
        "meta_eccentricity": 7.667e-05,
        "meta_inclination": 53.1575,
        "meta_ra_of_asc_node": 45.1649,
        "meta_arg_of_pericenter": 65.3528,
        "meta_mean_anomaly": 212.7706,
        "meta_ephemeris_type": 0,
        "meta_classification_type": "U",
        "meta_norad_cat_id": 66928,
        "meta_element_set_no": 999,
        "meta_rev_at_epoch": 216,
        "meta_bstar": -0.0032435365,
        "meta_mean_motion_dot": -0.01282948,
        "meta_mean_motion_ddot": 0.00049513799,
        "tle_line1": "1 66928U 25286D   25347.83336806 -.01282948  49514-3 -32435-2 0  9993",
        "tle_line2": "2 66928  53.1575  45.1649 0000766  65.3528 212.7706 15.94911317  2161"
      },
      "geometry": {
        "type": "Point",
        "coordinates": [
          88.97409907935449,
          44.64573670754998
        ]
      }
    }
  ]
}